CCSDS_OEM_VERS = 1.0
CREATION_DATE  = 2026-04-22T12:44:37
ORIGINATOR     = GMAT USER

META_START
OBJECT_NAME          = Ajisai
OBJECT_ID            = SatId
CENTER_NAME          = Earth
REF_FRAME            = ICRF
TIME_SYSTEM          = UTC
START_TIME           = 2022-09-10T01:52:00.000
USEABLE_START_TIME   = 2022-09-10T01:52:00.000
USEABLE_STOP_TIME    = 2022-10-05T01:52:00.000
STOP_TIME            = 2022-10-05T01:52:00.000
INTERPOLATION        = Lagrange
INTERPOLATION_DEGREE = 1 
META_STOP


                                                                                   

2022-09-21T17:00:00.000   2.336547354617289e+003   5.566749636372727e+003   5.038088476316490e+003  -6.457654409129865e+000   2.368740052816850e-004   2.999658626636676e+000
2022-09-21T17:04:00.000   7.439857958586216e+002   5.436068947981918e+003   5.633777265583384e+003  -6.761463321440318e+000  -1.084803810122773e+000   1.945006599679026e+000
2022-09-21T17:08:00.000  -8.835124207851867e+002   5.050191411670786e+003   5.964429990257751e+003  -6.747734865624520e+000  -2.118086715718377e+000   7.997183733240150e-001
2022-09-21T17:12:00.000  -2.469570530768494e+003   4.427395904370867e+003   6.014685340454352e+003  -6.417541507017798e+000  -3.051421707128914e+000  -3.824770667427818e-001
2022-09-21T17:16:00.000  -3.939834159300315e+003   3.596997770891418e+003   5.782313991102196e+003  -5.786584575877681e+000  -3.841370505290833e+000  -1.546291188962040e+000
2022-09-21T17:20:00.000  -5.225400672919791e+003   2.597972633662789e+003   5.278294384367453e+003  -4.884417077305355e+000  -4.451165000013883e+000  -2.637356509376376e+000
2022-09-21T17:24:00.000  -6.265996339685628e+003   1.477153914578988e+003   4.526300391526501e+003  -3.753133258055502e+000  -4.852340453072805e+000  -3.604642665822471e+000
2022-09-21T17:28:00.000  -7.012776745483759e+003   2.870738391382931e+002   3.561618165230125e+003  -2.445531106887683e+000  -5.026061680298408e+000  -4.402786344044673e+000
2022-09-21T17:32:00.000  -7.430623128643953e+003  -9.164675503600744e+002   2.429525913069690e+003  -1.022764288897763e+000  -4.964051262204851e+000  -4.994214971444797e+000
2022-09-21T17:36:00.000  -7.499821833690308e+003  -2.077003607274986e+003   1.183198578412224e+003   4.484427041193341e-001  -4.669069853733945e+000  -5.350968032064046e+000
2022-09-21T17:40:00.000  -7.217030861919846e+003  -3.140055589049977e+003  -1.187774366197535e+002   1.898925852394424e+000  -4.154868394238205e+000  -5.456104072543258e+000
2022-09-21T17:44:00.000  -6.595469607569656e+003  -4.055709226938728e+003  -1.415166279421237e+003   3.260397574767995e+000  -3.445586761008491e+000  -5.304584685941555e+000
2022-09-21T17:48:00.000  -5.664307806938277e+003  -4.780980924622043e+003  -2.644984836877095e+003   4.468766760370571e+000  -2.574606490369402e+000  -4.903545892199183e+000
2022-09-21T17:52:00.000  -4.467280461710388e+003  -5.281848856477862e+003  -3.750393473986621e+003   5.467234730589898e+000  -1.582920571716397e+000  -4.271935331415601e+000
2022-09-21T17:56:00.000  -3.060604924497333e+003  -5.534845343345512e+003  -4.679426424782028e+003   6.208986783351404e+000  -5.171290191119724e-001  -3.439546048803925e+000
2022-09-21T18:00:00.000  -1.510316167455780e+003  -5.528137057999713e+003  -5.388425360223554e+003   6.659329157596458e+000   5.727995176089908e-001  -2.445529561014748e+000
2022-09-21T18:04:00.000   1.108375179142570e+002  -5.262054500175562e+003  -5.844066671727559e+003   6.797214541842077e+000   1.635860449011797e+000  -1.336516141970097e+000
2022-09-21T18:08:00.000   1.726790097767223e+003  -4.749058847680101e+003  -6.024899774436361e+003   6.616135812090191e+000   2.622355398236188e+000  -1.644339659834359e-001
2022-09-21T18:12:00.000   3.261688534309124e+003  -4.013156113883180e+003  -5.922336742497483e+003   6.124362809440489e+000   3.486135779672038e+000   1.015860341640054e+000
2022-09-21T18:16:00.000   4.643407499549502e+003  -3.088793496797534e+003  -5.541061292032988e+003   5.344582109856990e+000   4.186668546660048e+000   2.149041325670567e+000
2022-09-21T18:20:00.000   5.806908383703441e+003  -2.019283977225331e+003  -4.898841676430198e+003   4.312957143954709e+000   4.690895246319549e+000   3.181813260600370e+000
2022-09-21T18:24:00.000   6.697301251053656e+003  -8.548157104892023e+002  -4.025745704146141e+003   3.077590983728803e+000   4.974817233122841e+000   4.065378981636247e+000
2022-09-21T18:28:00.000   7.272467920420936e+003   3.498769820589320e+002  -2.962777513516431e+003   1.696414083704662e+000   5.024718897533690e+000   4.757772040057018e+000
2022-09-21T18:32:00.000   7.505112395014250e+003   1.538085242162775e+003  -1.759980676522141e+003   2.345283751253947e-001   4.837947697289797e+000   5.225951867798832e+000
2022-09-21T18:36:00.000   7.384116226815607e+003   2.653819626871640e+003  -4.740829554575394e+002  -1.238899545468617e+000   4.423140287004385e+000   5.447497513410305e+000
2022-09-21T18:40:00.000   6.915114964410048e+003   3.644489233770897e+003   8.342035940260722e+002  -2.653989935063960e+000   3.799878299203594e+000   5.411777632025536e+000
2022-09-21T18:44:00.000   6.120254590624726e+003   4.463431521036123e+003   2.103097134247739e+003  -3.943617621141451e+000   2.997781439397326e+000   5.120555685126684e+000
2022-09-21T18:48:00.000   5.037119042324598e+003   5.072152525328782e+003   3.272724179182609e+003  -5.046794617753799e+000   2.055007913111305e+000   4.587892834305909e+000
2022-09-21T18:52:00.000   3.716890143132824e+003   5.442149276494877e+003   4.287988581028444e+003  -5.911646411698770e+000   1.016304382173326e+000   3.839355792469212e+000
2022-09-21T18:56:00.000   2.221857845273402e+003   5.556226729811791e+003   5.101179327919983e+003  -6.497831579142920e+000  -6.923232649420716e-002   2.910652240815979e+000
2022-09-21T19:00:00.000   6.224245991171324e+002   5.409256987816330e+003   5.674194078839153e+003  -6.778329613431204e+000  -1.150544320641863e+000   1.845809466750701e+000
2022-09-21T19:04:00.000  -1.006236840618094e+003   5.008359363762713e+003   5.980280593749258e+003  -6.740529674776759e+000  -2.177024874717023e+000   6.950023336450694e-001
2022-09-21T19:08:00.000  -2.587702441138623e+003   4.372513113293591e+003   6.005231492455971e+003  -6.386627961565224e+000  -3.100817599896636e+000  -4.878061991722362e-001
2022-09-21T19:12:00.000  -4.047835738990289e+003   3.531639464735711e+003   5.748001167297935e+003  -5.733407384436935e+000  -3.878929862152881e+000  -1.647308007371662e+000
2022-09-21T19:16:00.000  -5.318206167373864e+003   2.525202109388795e+003   5.220732150273108e+003  -4.811455640164430e+000  -4.475131971014405e+000  -2.729323150342690e+000
2022-09-21T19:20:00.000  -6.339249637162836e+003   1.400381363387191e+003   4.448189659382629e+003  -3.663797168086809e+000  -4.861592585136445e+000  -3.683239458354906e+000
2022-09-21T19:24:00.000  -7.063035857019651e+003   2.098974127217903e+002   3.466626101420584e+003  -2.344000963465681e+000  -5.020161162206925e+000  -4.464311587363017e+000
2022-09-21T19:28:00.000  -7.455523707598324e+003  -9.904297902291979e+002   2.322115925980884e+003  -9.138043562649807e-001  -4.943271711232908e+000  -5.035762578110544e+000
2022-09-21T19:32:00.000  -7.498190760393890e+003  -2.144283790843508e+003   1.068421454234341e+003   5.597078609563586e-001  -4.634384368700308e+000  -5.370568995652054e+000
2022-09-21T19:36:00.000  -7.188944597867592e+003  -3.197499656956505e+003  -2.355212892430570e+002   2.007249860499722e+000  -4.107910172110352e+000  -5.452827713437316e+000
2022-09-21T19:40:00.000  -6.542252161200974e+003  -4.100627222875817e+003  -1.528383581742235e+003   3.360674525226068e+000  -3.388573890481074e+000  -5.278590990140510e+000
2022-09-21T19:44:00.000  -5.588466290031006e+003  -4.811274229375822e+003  -2.749350950696361e+003   4.556282696780535e+000  -2.510227135002141e+000  -4.856072862003621e+000
2022-09-21T19:48:00.000  -4.372384317263892e+003  -5.296107096777952e+003  -3.841003828308903e+003   5.537883874902465e+000  -1.514199233181194e+000  -4.205230656987663e+000
2022-09-21T19:52:00.000  -2.951117293062583e+003  -5.532410740073748e+003  -4.752026709955988e+003   6.259456597157992e+000  -4.472901066405913e-001  -3.356760069943230e+000
2022-09-21T19:56:00.000  -1.391383051506665e+003  -5.509135197972330e+003  -5.439611304329478e+003   6.687266766420330e+000   6.404798329293860e-001  -2.350566089170513e+000
2022-09-21T20:00:00.000   2.336322573556434e+002  -5.227386318280585e+003  -5.871441466487781e+003   6.801333484518966e+000   1.698224469359455e+000  -1.233830328648273e+000
2022-09-21T20:04:00.000   1.847684835220575e+003  -4.700354610090434e+003  -6.027180862731338e+003   6.596243357640589e+000   2.676502467908468e+000  -5.882361762779994e-002
2022-09-21T20:08:00.000   3.375007989629440e+003  -3.952699805922575e+003  -5.899414416544866e+003   6.081371707331171e+000   3.529539278481706e+000   1.119455002725068e+000
2022-09-21T20:12:00.000   4.743825781241424e+003  -3.019418417114913e+003  -5.494005917231207e+003   5.280479921888652e+000   4.217296034881042e+000   2.245765588670799e+000
2022-09-21T20:16:00.000   5.889696661102062e+003  -1.944242312258060e+003  -4.829855920082583e+003   4.230713270315639e+000   4.707300856788898e+000   3.267121083655893e+000
2022-09-21T20:20:00.000   6.758549209482345e+003  -7.776295683574623e+002  -3.938065770553456e+003   2.981034190331694e+000   4.976207208670762e+000   4.135237256657899e+000
2022-09-21T20:24:00.000   7.309271467857961e+003   4.255780299525978e+002  -2.860526044704093e+003   1.590069011021435e+000   5.010995802929434e+000   4.808857746745040e+000
2022-09-21T20:28:00.000   7.515716842488851e+003   1.608732954638322e+003  -1.647976187941485e+003   1.234149324171427e-001   4.809719783074788e+000   5.255812128642264e+000
